GESAT GEN1              
1 62612U 25009D   26068.72662138  .00010041  00000+0  38326-3 0  9990
2 62612  97.4058 151.4598 0000888  98.3547 261.7793 15.26847505 63732
STARLINK-33654          
1 63466U 25070G   26068.54131014  .00026581  00000+0  97146-3 0  9991
2 63466  42.9983 260.6446 0000959 260.8354  99.2389 15.27597063 52957
